{"type": "FeatureCollection", "features": [ {"type": "Feature", "properties": {"norad_id": 66450, "name": "STARLINK-35334", "group": "last-30-days", "lat": 16.97968903189046, "lon": -133.67256675779876, "alt_km": 412.234618164156, "timestamp": "2025-12-09T14:52:24.940807+00:00", "meta": {"OBJECT_NAME": "STARLINK-35334", "OBJECT_ID": "2025-259AE", "EPOCH": "2025-12-08T22:45:06.386112", "MEAN_MOTION": 15.50615981, "ECCENTRICITY": 0.0001305, "INCLINATION": 42.9969, "RA_OF_ASC_NODE": 69.3883, "ARG_OF_PERICENTER": 271.9278, "MEAN_ANOMALY": 88.1433, "EPHEMERIS_TYPE": 0, "CLASSIFICATION_TYPE": "U", "NORAD_CAT_ID": 66450, "ELEMENT_SET_NO": 999, "REV_AT_EPOCH": 558, "BSTAR": 0.0020122, "MEAN_MOTION_DOT": 0.00119681, "MEAN_MOTION_DDOT": 0}, "tle": {"line1": "1 66450U 25259AE  25342.94799058  .00119681  00000+0  20122-2 0  9995", "line2": "2 66450  42.9969  69.3883 0001305 271.9278  88.1433 15.50615981  5580"}}, "geometry": {"type": "Point", "coordinates": [-133.67256675779876, 16.97968903189046]}}, {"type": "Feature", "properties": {"norad_id": 66454, "name": "VIASAT-3 F2", "group": "last-30-days", "lat": -5.418574980436468, "lon": -168.4666016753459, "alt_km": 15403.304557324172, "timestamp": "2025-12-09T14:52:24.940821+00:00", "meta": {"OBJECT_NAME": "VIASAT-3 F2", "OBJECT_ID": "2025-261A", "EPOCH": "2025-12-06T17:04:58.090944", "MEAN_MOTION": 2.24196708, "ECCENTRICITY": 0.23030921, "INCLINATION": 5.516, "RA_OF_ASC_NODE": 292.8248, "ARG_OF_PERICENTER": 186.81, "MEAN_ANOMALY": 221.0538, "EPHEMERIS_TYPE": 0, "CLASSIFICATION_TYPE": "U", "NORAD_CAT_ID": 66454, "ELEMENT_SET_NO": 999, "REV_AT_EPOCH": 51, "BSTAR": 0, "MEAN_MOTION_DOT": -7.3e-07, "MEAN_MOTION_DDOT": 0}, "tle": {"line1": "1 66454U 25261A   25340.71178346 -.00000073  00000+0  00000+0 0  9991", "line2": "2 66454   5.5160 292.8248 2303092 186.8100 221.0538  2.24196708   518"}}, "geometry": {"type": "Point", "coordinates": [-168.4666016753459, -5.418574980436468]}}, {"type": "Feature", "properties": {"norad_id": 66455, "name": "ATLAS 5 CENTAUR R/B", "group": "last-30-days", "lat": -4.655599606850919, "lon": -117.03536850100512, "alt_km": 20231.962498336823, "timestamp": "2025-12-09T14:52:24.940833+00:00", "meta": {"OBJECT_NAME": "ATLAS 5 CENTAUR R/B", "OBJECT_ID": "2025-261B", "EPOCH": "2025-12-09T04:50:38.740128", "MEAN_MOTION": 2.28259592, "ECCENTRICITY": 0.23295213, "INCLINATION": 6.1502, "RA_OF_ASC_NODE": 291.9704, "ARG_OF_PERICENTER": 185.7729, "MEAN_ANOMALY": 117.5169, "EPHEMERIS_TYPE": 0, "CLASSIFICATION_TYPE": "U", "NORAD_CAT_ID": 66455, "ELEMENT_SET_NO": 999, "REV_AT_EPOCH": 56, "BSTAR": 0, "MEAN_MOTION_DOT": -8e-07, "MEAN_MOTION_DDOT": 0}, "tle": {"line1": "1 66455U 25261B   25343.20183727 -.00000080  00000+0  00000+0 0  9996", "line2": "2 66455   6.1502 291.9704 2329521 185.7729 117.5169  2.28259592   562"}}, "geometry": {"type": "Point", "coordinates": [-117.03536850100512, -4.655599606850919]}}, {"type": "Feature", "properties": {"norad_id": 66456, "name": "STARLINK-35643", "group": "last-30-days", "lat": 41.0726341186778, "lon": -159.67978118738662, "alt_km": 438.3677790903894, "timestamp": "2025-12-09T14:52:24.940844+00:00", "meta": {"OBJECT_NAME": "STARLINK-35643", "OBJECT_ID": "2025-262A", "EPOCH": "2025-12-09T08:00:01.999872", "MEAN_MOTION": 15.40713673, "ECCENTRICITY": 0.00012344, "INCLINATION": 43.0003, "RA_OF_ASC_NODE": 91.2376, "ARG_OF_PERICENTER": 269.2789, "MEAN_ANOMALY": 45.9007, "EPHEMERIS_TYPE": 0, "CLASSIFICATION_TYPE": "U", "NORAD_CAT_ID": 66456, "ELEMENT_SET_NO": 999, "REV_AT_EPOCH": 509, "BSTAR": -0.0011103983, "MEAN_MOTION_DOT": -0.00046426, "MEAN_MOTION_DDOT": 0}, "tle": {"line1": "1 66456U 25262A   25343.33335648 -.00046426  00000+0 -11104-2 0  9998", "line2": "2 66456  43.0003  91.2376 0001234 269.2789  45.9007 15.40713673  5096"}}, "geometry": {"type": "Point", "coordinates": [-159.67978118738662, 41.0726341186778]}}, {"type": "Feature", "properties": {"norad_id": 66457, "name": "STARLINK-35466", "group": "last-30-days", "lat": 31.292802924655962, "lon": -131.18846437697218, "alt_km": 439.6434118201805, "timestamp": "2025-12-09T14:52:24.940855+00:00", "meta": {"OBJECT_NAME": "STARLINK-35466", "OBJECT_ID": "2025-262B", "EPOCH": "2025-12-09T08:00:01.999872", "MEAN_MOTION": 15.40645531, "ECCENTRICITY": 9.326e-05, "INCLINATION": 43.0001, "RA_OF_ASC_NODE": 91.1763, "ARG_OF_PERICENTER": 274.759, "MEAN_ANOMALY": 65.3191, "EPHEMERIS_TYPE": 0, "CLASSIFICATION_TYPE": "U", "NORAD_CAT_ID": 66457, "ELEMENT_SET_NO": 999, "REV_AT_EPOCH": 509, "BSTAR": 0.0015718907, "MEAN_MOTION_DOT": 0.00065807, "MEAN_MOTION_DDOT": 0}, "tle": {"line1": "1 66457U 25262B   25343.33335648  .00065807  00000+0  15719-2 0  9997", "line2": "2 66457  43.0001  91.1763 0000932 274.7590  65.3191 15.40645531  5096"}}, "geometry": {"type": "Point", "coordinates": [-131.18846437697218, 31.292802924655962]}}, {"type": "Feature", "properties": {"norad_id": 66458, "name": "STARLINK-35684", "group": "last-30-days", "lat": 37.058292443999164, "lon": -144.5753677365999, "alt_km": 438.8212504764342, "timestamp": "2025-12-09T14:52:24.940865+00:00", "meta": {"OBJECT_NAME": "STARLINK-35684", "OBJECT_ID": "2025-262C", "EPOCH": "2025-12-09T08:00:01.999872", "MEAN_MOTION": 15.40661034, "ECCENTRICITY": 0.00012471, "INCLINATION": 43.0002, "RA_OF_ASC_NODE": 91.2072, "ARG_OF_PERICENTER": 258.7381, "MEAN_ANOMALY": 68.8501, "EPHEMERIS_TYPE": 0, "CLASSIFICATION_TYPE": "U", "NORAD_CAT_ID": 66458, "ELEMENT_SET_NO": 999, "REV_AT_EPOCH": 509, "BSTAR": 0.001562397, "MEAN_MOTION_DOT": 0.00065438, "MEAN_MOTION_DDOT": 0}, "tle": {"line1": "1 66458U 25262C   25343.33335648  .00065438  00000+0  15624-2 0  9993", "line2": "2 66458  43.0002  91.2072 0001247 258.7381  68.8501 15.40661034  5091"}}, "geometry": {"type": "Point", "coordinates": [-144.5753677365999, 37.058292443999164]}}, {"type": "Feature", "properties": {"norad_id": 66459, "name": "STARLINK-35449", "group": "last-30-days", "lat": 24.329345480731188, "lon": -119.53020179842373, "alt_km": 440.8362389418162, "timestamp": "2025-12-09T14:52:24.940877+00:00", "meta": {"OBJECT_NAME": "STARLINK-35449", "OBJECT_ID": "2025-262D", "EPOCH": "2025-12-09T08:00:01.999872", "MEAN_MOTION": 15.40641157, "ECCENTRICITY": 0.00012191, "INCLINATION": 43.0003, "RA_OF_ASC_NODE": 91.1455, "ARG_OF_PERICENTER": 275.7001, "MEAN_ANOMALY": 76.8259, "EPHEMERIS_TYPE": 0, "CLASSIFICATION_TYPE": "U", "NORAD_CAT_ID": 66459, "ELEMENT_SET_NO": 999, "REV_AT_EPOCH": 509, "BSTAR": 0.0015809394, "MEAN_MOTION_DOT": 0.00066181, "MEAN_MOTION_DDOT": 0}, "tle": {"line1": "1 66459U 25262D   25343.33335648  .00066181  00000+0  15809-2 0  9995", "line2": "2 66459  43.0003  91.1455 0001219 275.7001  76.8259 15.40641157  5097"}}, "geometry": {"type": "Point", "coordinates": [-119.53020179842373, 24.329345480731188]}}, {"type": "Feature", "properties": {"norad_id": 66460, "name": "STARLINK-35424", "group": "last-30-days", "lat": 16.55103707618677, "lon": -109.13186292358878, "alt_km": 441.6657815612998, "timestamp": "2025-12-09T14:52:24.940888+00:00", "meta": {"OBJECT_NAME": "STARLINK-35424", "OBJECT_ID": "2025-262E", "EPOCH": "2025-12-09T08:00:01.999872", "MEAN_MOTION": 15.40912933, "ECCENTRICITY": 0.0001348, "INCLINATION": 43.0003, "RA_OF_ASC_NODE": 91.1162, "ARG_OF_PERICENTER": 256.6994, "MEAN_ANOMALY": 108.1559, "EPHEMERIS_TYPE": 0, "CLASSIFICATION_TYPE": "U", "NORAD_CAT_ID": 66460, "ELEMENT_SET_NO": 999, "REV_AT_EPOCH": 509, "BSTAR": -0.0093866547, "MEAN_MOTION_DOT": -0.00376343, "MEAN_MOTION_DDOT": 0}, "tle": {"line1": "1 66460U 25262E   25343.33335648 -.00376343  00000+0 -93867-2 0  9993", "line2": "2 66460  43.0003  91.1162 0001348 256.6994 108.1559 15.40912933  5091"}}, "geometry": {"type": "Point", "coordinates": [-109.13186292358878, 16.55103707618677]}}, {"type": "Feature", "properties": {"norad_id": 66461, "name": "STARLINK-35132", "group": "last-30-days", "lat": 8.44274376933574, "lon": -99.7288728443949, "alt_km": 441.1375585298665, "timestamp": "2025-12-09T14:52:24.940900+00:00", "meta": {"OBJECT_NAME": "STARLINK-35132", "OBJECT_ID": "2025-262F", "EPOCH": "2025-12-09T08:00:01.999872", "MEAN_MOTION": 15.42698701, "ECCENTRICITY": 0.00014569, "INCLINATION": 43.0001, "RA_OF_ASC_NODE": 91.0904, "ARG_OF_PERICENTER": 280.8909, "MEAN_ANOMALY": 94.952, "EPHEMERIS_TYPE": 0, "CLASSIFICATION_TYPE": "U", "NORAD_CAT_ID": 66461, "ELEMENT_SET_NO": 999, "REV_AT_EPOCH": 509, "BSTAR": -0.053510245, "MEAN_MOTION_DOT": -0.02114571, "MEAN_MOTION_DDOT": 0}, "tle": {"line1": "1 66461U 25262F   25343.33335648 -.02114571  00000+0 -53510-1 0  9999", "line2": "2 66461  43.0001  91.0904 0001456 280.8909  94.9520 15.42698701  5094"}}, "geometry": {"type": "Point", "coordinates": [-99.7288728443949, 8.44274376933574]}}, {"type": "Feature", "properties": {"norad_id": 66462, "name": "STARLINK-35499", "group": "last-30-days", "lat": 0.9599140287800173, "lon": -91.62281927337271, "alt_km": 437.7601344716195, "timestamp": "2025-12-09T14:52:24.940910+00:00", "meta": {"OBJECT_NAME": "STARLINK-35499", "OBJECT_ID": "2025-262G", "EPOCH": "2025-12-09T08:00:01.999872", "MEAN_MOTION": 15.44014309, "ECCENTRICITY": 0.00014222, "INCLINATION": 43.0002, "RA_OF_ASC_NODE": 91.0647, "ARG_OF_PERICENTER": 265.6731, "MEAN_ANOMALY": 119.8305, "EPHEMERIS_TYPE": 0, "CLASSIFICATION_TYPE": "U", "NORAD_CAT_ID": 66462, "ELEMENT_SET_NO": 999, "REV_AT_EPOCH": 509, "BSTAR": -0.050733049, "MEAN_MOTION_DOT": -0.02098945, "MEAN_MOTION_DDOT": 0}, "tle": {"line1": "1 66462U 25262G   25343.33335648 -.02098945  00000+0 -50733-1 0  9990", "line2": "2 66462  43.0002  91.0647 0001422 265.6731 119.8305 15.44014309  5093"}}, "geometry": {"type": "Point", "coordinates": [-91.62281927337271, 0.9599140287800173]}}]}